{"type": "FeatureCollection", "features": [ {"type": "Feature", "properties": {"norad_id": 34001, "name": "COSMOS 2251 DEB", "group": "cosmos-2251-debris", "lat": -72.95632804383717, "lon": -174.08980594349214, "alt_km": 781.2096170251671, "timestamp": "2025-12-04T09:47:37.913064+00:00", "meta": {"OBJECT_NAME": "COSMOS 2251 DEB", "OBJECT_ID": "1993-036GL", "EPOCH": "2025-12-04T03:36:49.940928", "MEAN_MOTION": 14.37080829, "ECCENTRICITY": 0.0019552, "INCLINATION": 74.0383, "RA_OF_ASC_NODE": 297.381, "ARG_OF_PERICENTER": 20.4582, "MEAN_ANOMALY": 352.0652, "EPHEMERIS_TYPE": 0, "CLASSIFICATION_TYPE": "U", "NORAD_CAT_ID": 34001, "ELEMENT_SET_NO": 999, "REV_AT_EPOCH": 88023, "BSTAR": 0.00039221, "MEAN_MOTION_DOT": 1.141e-05, "MEAN_MOTION_DDOT": 0}, "tle": {"line1": "1 34001U 93036GL  25338.15057802  .00001141  00000+0  39221-3 0  9994", "line2": "2 34001  74.0383 297.3810 0019552  20.4582 352.0652 14.37080829880234"}}, "geometry": {"type": "Point", "coordinates": [-174.08980594349214, -72.95632804383717]}}, {"type": "Feature", "properties": {"norad_id": 34003, "name": "COSMOS 2251 DEB", "group": "cosmos-2251-debris", "lat": -59.66967855340974, "lon": -90.03608698070873, "alt_km": 1042.737625619914, "timestamp": "2025-12-04T09:47:37.913074+00:00", "meta": {"OBJECT_NAME": "COSMOS 2251 DEB", "OBJECT_ID": "1993-036GN", "EPOCH": "2025-12-03T08:04:48.560160", "MEAN_MOTION": 13.84063937, "ECCENTRICITY": 0.0273684, "INCLINATION": 74.0779, "RA_OF_ASC_NODE": 300.9687, "ARG_OF_PERICENTER": 55.2105, "MEAN_ANOMALY": 307.4448, "EPHEMERIS_TYPE": 0, "CLASSIFICATION_TYPE": "U", "NORAD_CAT_ID": 34003, "ELEMENT_SET_NO": 999, "REV_AT_EPOCH": 84295, "BSTAR": 0.0024892, "MEAN_MOTION_DOT": 3.681e-05, "MEAN_MOTION_DDOT": 0}, "tle": {"line1": "1 34003U 93036GN  25337.33667315  .00003681  00000+0  24892-2 0  9999", "line2": "2 34003  74.0779 300.9687 0273684  55.2105 307.4448 13.84063937842959"}}, "geometry": {"type": "Point", "coordinates": [-90.03608698070873, -59.66967855340974]}}, {"type": "Feature", "properties": {"norad_id": 34004, "name": "COSMOS 2251 DEB", "group": "cosmos-2251-debris", "lat": 23.94707365942069, "lon": 141.42716573119029, "alt_km": 751.7358831938382, "timestamp": "2025-12-04T09:47:37.913084+00:00", "meta": {"OBJECT_NAME": "COSMOS 2251 DEB", "OBJECT_ID": "1993-036GP", "EPOCH": "2025-12-04T00:47:42.970272", "MEAN_MOTION": 14.48867664, "ECCENTRICITY": 0.0033078, "INCLINATION": 74.0351, "RA_OF_ASC_NODE": 329.434, "ARG_OF_PERICENTER": 342.8249, "MEAN_ANOMALY": 17.1788, "EPHEMERIS_TYPE": 0, "CLASSIFICATION_TYPE": "U", "NORAD_CAT_ID": 34004, "ELEMENT_SET_NO": 999, "REV_AT_EPOCH": 87904, "BSTAR": 0.0027329, "MEAN_MOTION_DOT": 0.00010395, "MEAN_MOTION_DDOT": 0}, "tle": {"line1": "1 34004U 93036GP  25338.03313623  .00010395  00000+0  27329-2 0  9996", "line2": "2 34004  74.0351 329.4340 0033078 342.8249  17.1788 14.48867664879045"}}, "geometry": {"type": "Point", "coordinates": [141.42716573119029, 23.94707365942069]}}, {"type": "Feature", "properties": {"norad_id": 34005, "name": "COSMOS 2251 DEB", "group": "cosmos-2251-debris", "lat": -31.20185938008614, "lon": -140.93804704763855, "alt_km": 749.5446971214478, "timestamp": "2025-12-04T09:47:37.913094+00:00", "meta": {"OBJECT_NAME": "COSMOS 2251 DEB", "OBJECT_ID": "1993-036GQ", "EPOCH": "2025-12-04T03:58:45.692832", "MEAN_MOTION": 14.4029469, "ECCENTRICITY": 0.0020511, "INCLINATION": 74.0451, "RA_OF_ASC_NODE": 229.4873, "ARG_OF_PERICENTER": 349.2706, "MEAN_ANOMALY": 162.6298, "EPHEMERIS_TYPE": 0, "CLASSIFICATION_TYPE": "U", "NORAD_CAT_ID": 34005, "ELEMENT_SET_NO": 999, "REV_AT_EPOCH": 88255, "BSTAR": 0.00021925, "MEAN_MOTION_DOT": 6.7e-06, "MEAN_MOTION_DDOT": 0}, "tle": {"line1": "1 34005U 93036GQ  25338.16580663  .00000670  00000+0  21925-3 0  9993", "line2": "2 34005  74.0451 229.4873 0020511 349.2706 162.6298 14.40294690882551"}}, "geometry": {"type": "Point", "coordinates": [-140.93804704763855, -31.20185938008614]}}, {"type": "Feature", "properties": {"norad_id": 34006, "name": "COSMOS 2251 DEB", "group": "cosmos-2251-debris", "lat": 51.60272390143023, "lon": -178.80057918895122, "alt_km": 577.3015458379332, "timestamp": "2025-12-04T09:47:37.913105+00:00", "meta": {"OBJECT_NAME": "COSMOS 2251 DEB", "OBJECT_ID": "1993-036GR", "EPOCH": "2025-12-02T19:02:31.984800", "MEAN_MOTION": 14.93623986, "ECCENTRICITY": 0.0012293, "INCLINATION": 74.054, "RA_OF_ASC_NODE": 163.2959, "ARG_OF_PERICENTER": 122.0289, "MEAN_ANOMALY": 253.9852, "EPHEMERIS_TYPE": 0, "CLASSIFICATION_TYPE": "U", "NORAD_CAT_ID": 34006, "ELEMENT_SET_NO": 999, "REV_AT_EPOCH": 88520, "BSTAR": 0.0040343993, "MEAN_MOTION_DOT": 0.00042902, "MEAN_MOTION_DDOT": 0}, "tle": {"line1": "1 34006U 93036GR  25336.79342575  .00042902  00000+0  40344-2 0  9998", "line2": "2 34006  74.0540 163.2959 0012293 122.0289 253.9852 14.93623986885209"}}, "geometry": {"type": "Point", "coordinates": [-178.80057918895122, 51.60272390143023]}}, {"type": "Feature", "properties": {"norad_id": 34007, "name": "COSMOS 2251 DEB", "group": "cosmos-2251-debris", "lat": 20.960163381441394, "lon": 176.63316866281113, "alt_km": 647.508115592068, "timestamp": "2025-12-04T09:47:37.913115+00:00", "meta": {"OBJECT_NAME": "COSMOS 2251 DEB", "OBJECT_ID": "1993-036GS", "EPOCH": "2025-12-03T11:45:59.522400", "MEAN_MOTION": 14.64678866, "ECCENTRICITY": 0.00447699, "INCLINATION": 74.0201, "RA_OF_ASC_NODE": 4.7007, "ARG_OF_PERICENTER": 142.512, "MEAN_ANOMALY": 217.9186, "EPHEMERIS_TYPE": 0, "CLASSIFICATION_TYPE": "U", "NORAD_CAT_ID": 34007, "ELEMENT_SET_NO": 999, "REV_AT_EPOCH": 88944, "BSTAR": 0.00096344532, "MEAN_MOTION_DOT": 5.174e-05, "MEAN_MOTION_DDOT": 0}, "tle": {"line1": "1 34007U 93036GS  25337.49027225  .00005174  00000+0  96345-3 0  9992", "line2": "2 34007  74.0201   4.7007 0044769 142.5120 217.9186 14.64678866889446"}}, "geometry": {"type": "Point", "coordinates": [176.63316866281113, 20.960163381441394]}}, {"type": "Feature", "properties": {"norad_id": 34008, "name": "COSMOS 2251 DEB", "group": "cosmos-2251-debris", "lat": 74.00257503064798, "lon": 72.67126007937593, "alt_km": 778.7051019728724, "timestamp": "2025-12-04T09:47:37.913125+00:00", "meta": {"OBJECT_NAME": "COSMOS 2251 DEB", "OBJECT_ID": "1993-036GT", "EPOCH": "2025-12-04T02:58:08.291712", "MEAN_MOTION": 14.33136993, "ECCENTRICITY": 0.0024006, "INCLINATION": 74.0342, "RA_OF_ASC_NODE": 346.2655, "ARG_OF_PERICENTER": 343.1754, "MEAN_ANOMALY": 79.1521, "EPHEMERIS_TYPE": 0, "CLASSIFICATION_TYPE": "U", "NORAD_CAT_ID": 34008, "ELEMENT_SET_NO": 999, "REV_AT_EPOCH": 87841, "BSTAR": 0.00022223, "MEAN_MOTION_DOT": 5.86e-06, "MEAN_MOTION_DDOT": 0}, "tle": {"line1": "1 34008U 93036GT  25338.12370708  .00000586  00000+0  22223-3 0  9997", "line2": "2 34008  74.0342 346.2655 0024006 343.1754  79.1521 14.33136993878412"}}, "geometry": {"type": "Point", "coordinates": [72.67126007937593, 74.00257503064798]}}, {"type": "Feature", "properties": {"norad_id": 34009, "name": "COSMOS 2251 DEB", "group": "cosmos-2251-debris", "lat": 53.82155655746334, "lon": 149.12243498680502, "alt_km": 765.6652087960574, "timestamp": "2025-12-04T09:47:37.913135+00:00", "meta": {"OBJECT_NAME": "COSMOS 2251 DEB", "OBJECT_ID": "1993-036GU", "EPOCH": "2025-12-04T02:47:07.380096", "MEAN_MOTION": 14.33211928, "ECCENTRICITY": 0.0026275, "INCLINATION": 74.0372, "RA_OF_ASC_NODE": 352.6968, "ARG_OF_PERICENTER": 65.1315, "MEAN_ANOMALY": 351.366, "EPHEMERIS_TYPE": 0, "CLASSIFICATION_TYPE": "U", "NORAD_CAT_ID": 34009, "ELEMENT_SET_NO": 999, "REV_AT_EPOCH": 87822, "BSTAR": 0.00024409, "MEAN_MOTION_DOT": 6.48e-06, "MEAN_MOTION_DDOT": 0}, "tle": {"line1": "1 34009U 93036GU  25338.11605764  .00000648  00000+0  24409-3 0  9997", "line2": "2 34009  74.0372 352.6968 0026275  65.1315 351.3660 14.33211928878228"}}, "geometry": {"type": "Point", "coordinates": [149.12243498680502, 53.82155655746334]}}, {"type": "Feature", "properties": {"norad_id": 34010, "name": "COSMOS 2251 DEB", "group": "cosmos-2251-debris", "lat": -12.628483013196272, "lon": -62.93829023653066, "alt_km": 519.4651189348915, "timestamp": "2025-12-04T09:47:37.913145+00:00", "meta": {"OBJECT_NAME": "COSMOS 2251 DEB", "OBJECT_ID": "1993-036GV", "EPOCH": "2025-12-03T22:46:04.494432", "MEAN_MOTION": 15.16315546, "ECCENTRICITY": 0.0004471, "INCLINATION": 73.9996, "RA_OF_ASC_NODE": 301.7072, "ARG_OF_PERICENTER": 53.7448, "MEAN_ANOMALY": 306.4159, "EPHEMERIS_TYPE": 0, "CLASSIFICATION_TYPE": "U", "NORAD_CAT_ID": 34010, "ELEMENT_SET_NO": 999, "REV_AT_EPOCH": 89152, "BSTAR": 0.007914, "MEAN_MOTION_DOT": 0.00156793, "MEAN_MOTION_DDOT": 0}, "tle": {"line1": "1 34010U 93036GV  25337.94866313  .00156793  00000+0  79140-2 0  9992", "line2": "2 34010  73.9996 301.7072 0004471  53.7448 306.4159 15.16315546891520"}}, "geometry": {"type": "Point", "coordinates": [-62.93829023653066, -12.628483013196272]}}, {"type": "Feature", "properties": {"norad_id": 34011, "name": "COSMOS 2251 DEB", "group": "cosmos-2251-debris", "lat": -49.888087485697426, "lon": -174.49695760056557, "alt_km": 783.0891399530547, "timestamp": "2025-12-04T09:47:37.913155+00:00", "meta": {"OBJECT_NAME": "COSMOS 2251 DEB", "OBJECT_ID": "1993-036GW", "EPOCH": "2025-12-04T02:03:32.942880", "MEAN_MOTION": 14.41704225, "ECCENTRICITY": 0.0035203, "INCLINATION": 74.0145, "RA_OF_ASC_NODE": 346.2072, "ARG_OF_PERICENTER": 72.5903, "MEAN_ANOMALY": 287.9096, "EPHEMERIS_TYPE": 0, "CLASSIFICATION_TYPE": "U", "NORAD_CAT_ID": 34011, "ELEMENT_SET_NO": 999, "REV_AT_EPOCH": 87791, "BSTAR": 0.0014391, "MEAN_MOTION_DOT": 4.704e-05, "MEAN_MOTION_DDOT": 0}, "tle": {"line1": "1 34011U 93036GW  25338.08579795  .00004704  00000+0  14391-2 0  9995", "line2": "2 34011  74.0145 346.2072 0035203  72.5903 287.9096 14.41704225877918"}}, "geometry": {"type": "Point", "coordinates": [-174.49695760056557, -49.888087485697426]}}]}